HIMAWARI-8              
1 40267U 14060A   24036.61574269 -.00000262  00000+0  00000+0 0  9994
2 40267   0.0248 164.9547 0000544 153.7016 178.9129  1.00270038 34114
